[{"OBJECT_NAME":"STARLINK-5942","OBJECT_ID":"2023-042AE","EPOCH":"2026-03-09T22:00:01.999584","MEAN_MOTION":15.08677002,"ECCENTRICITY":0.00016541,"INCLINATION":43.0008,"RA_OF_ASC_NODE":42.1159,"ARG_OF_PERICENTER":241.0933,"MEAN_ANOMALY":46.1403,"EPHEMERIS_TYPE":0,"CLASSIFICATION_TYPE":"U","NORAD_CAT_ID":56014,"ELEMENT_SET_NO":999,"REV_AT_EPOCH":557,"BSTAR":0.0040190504,"MEAN_MOTION_DOT":0.00064432,"MEAN_MOTION_DDOT":0},{"OBJECT_NAME":"KUIPER-00164","OBJECT_ID":"2025-301B","EPOCH":"2026-03-09T22:00:01.999584","MEAN_MOTION":15.08488187,"ECCENTRICITY":0.00045568,"INCLINATION":51.8847,"RA_OF_ASC_NODE":66.2292,"ARG_OF_PERICENTER":84.8156,"MEAN_ANOMALY":198.9561,"EPHEMERIS_TYPE":0,"CLASSIFICATION_TYPE":"U","NORAD_CAT_ID":67134,"ELEMENT_SET_NO":999,"REV_AT_EPOCH":541,"BSTAR":0.00024752424,"MEAN_MOTION_DOT":3.618e-5,"MEAN_MOTION_DDOT":0}]
